[{"OBJECT_NAME":"KUIPER-00170","OBJECT_ID":"2025-217X","EPOCH":"2026-03-09T07:36:16.011072","MEAN_MOTION":14.79913097,"ECCENTRICITY":7.549e-5,"INCLINATION":51.9002,"RA_OF_ASC_NODE":39.732,"ARG_OF_PERICENTER":111.3299,"MEAN_ANOMALY":248.7744,"EPHEMERIS_TYPE":0,"CLASSIFICATION_TYPE":"U","NORAD_CAT_ID":65783,"ELEMENT_SET_NO":999,"REV_AT_EPOCH":2489,"BSTAR":0.00028047595,"MEAN_MOTION_DOT":1.917e-5,"MEAN_MOTION_DDOT":0},{"OBJECT_NAME":"COSMOS 2251 DEB","OBJECT_ID":"1993-036AEC","EPOCH":"2026-03-07T09:19:59.510208","MEAN_MOTION":14.7457939,"ECCENTRICITY":0.00772626,"INCLINATION":74.0173,"RA_OF_ASC_NODE":304.2149,"ARG_OF_PERICENTER":67.7037,"MEAN_ANOMALY":293.2304,"EPHEMERIS_TYPE":0,"CLASSIFICATION_TYPE":"U","NORAD_CAT_ID":34949,"ELEMENT_SET_NO":999,"REV_AT_EPOCH":89609,"BSTAR":0.00052874464,"MEAN_MOTION_DOT":3.663e-5,"MEAN_MOTION_DDOT":0}]
